STARLINK-35834          
1 66570U 25268P   26068.15997786  .00030789  00000+0  11226-2 0  9991
2 66570  42.9969 350.5009 0000279 237.3828 122.6996 15.27613968 17874
PELICAN-6               
1 66703U 25276AP  26068.70709364  .00077979  00000+0  29726-2 0  9998
2 66703  97.4276 144.2072 0003569 157.8575 202.2819 15.26377980 15334
